CCSDS_OMM_VERS = 2.0
CREATION_DATE  = 
ORIGINATOR     = 

OBJECT_NAME    = SL-16 R/B
OBJECT_ID      = 1996-051B
CENTER_NAME    = EARTH
REF_FRAME      = TEME
TIME_SYSTEM    = UTC
MEAN_ELEMENT_THEORY = SGP/SGP4

EPOCH          = 2025-11-13T05:44:13.174368
MEAN_MOTION    = 14.12393146
ECCENTRICITY   = .00181554
INCLINATION    = 70.7605
RA_OF_ASC_NODE = 61.7243
ARG_OF_PERICENTER = 298.5350
MEAN_ANOMALY   = 61.3941

EPHEMERIS_TYPE = 0
CLASSIFICATION_TYPE = U
NORAD_CAT_ID   = 24298
ELEMENT_SET_NO = 999
REV_AT_EPOCH   = 50520
BSTAR          = .45412929E-4
MEAN_MOTION_DOT = .35E-6
MEAN_MOTION_DDOT = 0

CCSDS_OMM_VERS = 2.0
CREATION_DATE  = 
ORIGINATOR     = 

OBJECT_NAME    = ORBVIEW 2 (SEASTAR)
OBJECT_ID      = 1997-037A
CENTER_NAME    = EARTH
REF_FRAME      = TEME
TIME_SYSTEM    = UTC
MEAN_ELEMENT_THEORY = SGP/SGP4

EPOCH          = 2025-11-13T06:57:35.456544
MEAN_MOTION    = 14.35384337
ECCENTRICITY   = .00029831
INCLINATION    = 98.8447
RA_OF_ASC_NODE = 113.6263
ARG_OF_PERICENTER = 58.8106
MEAN_ANOMALY   = 301.3371

EPHEMERIS_TYPE = 0
CLASSIFICATION_TYPE = U
NORAD_CAT_ID   = 24883
ELEMENT_SET_NO = 999
REV_AT_EPOCH   = 49177
BSTAR          = .30295785E-3
MEAN_MOTION_DOT = .823E-5
MEAN_MOTION_DDOT = 0

CCSDS_OMM_VERS = 2.0
CREATION_DATE  = 
ORIGINATOR     = 

OBJECT_NAME    = SL-16 R/B
OBJECT_ID      = 1998-043G
CENTER_NAME    = EARTH
REF_FRAME      = TEME
TIME_SYSTEM    = UTC
MEAN_ELEMENT_THEORY = SGP/SGP4

EPOCH          = 2025-11-13T06:12:56.910528
MEAN_MOTION    = 14.26014745
ECCENTRICITY   = .00098221
INCLINATION    = 98.8075
RA_OF_ASC_NODE = 264.9195
ARG_OF_PERICENTER = 358.6691
MEAN_ANOMALY   = 1.4461

EPHEMERIS_TYPE = 0
CLASSIFICATION_TYPE = U
NORAD_CAT_ID   = 25400
ELEMENT_SET_NO = 999
REV_AT_EPOCH   = 42239
BSTAR          = .11775833E-3
MEAN_MOTION_DOT = .236E-5
MEAN_MOTION_DDOT = 0

CCSDS_OMM_VERS = 2.0
CREATION_DATE  = 
ORIGINATOR     = 

OBJECT_NAME    = SL-16 R/B
OBJECT_ID      = 1998-045B
CENTER_NAME    = EARTH
REF_FRAME      = TEME
TIME_SYSTEM    = UTC
MEAN_ELEMENT_THEORY = SGP/SGP4

EPOCH          = 2025-11-12T14:29:43.414944
MEAN_MOTION    = 14.16169221
ECCENTRICITY   = .00086617
INCLINATION    = 71.0121
RA_OF_ASC_NODE = 67.7985
ARG_OF_PERICENTER = 218.9940
MEAN_ANOMALY   = 141.0560

EPHEMERIS_TYPE = 0
CLASSIFICATION_TYPE = U
NORAD_CAT_ID   = 25407
ELEMENT_SET_NO = 999
REV_AT_EPOCH   = 41052
BSTAR          = -.18153405E-4
MEAN_MOTION_DOT = -.84E-6
MEAN_MOTION_DDOT = 0

CCSDS_OMM_VERS = 2.0
CREATION_DATE  = 
ORIGINATOR     = 

OBJECT_NAME    = ISS (ZARYA)
OBJECT_ID      = 1998-067A
CENTER_NAME    = EARTH
REF_FRAME      = TEME
TIME_SYSTEM    = UTC
MEAN_ELEMENT_THEORY = SGP/SGP4

EPOCH          = 2025-11-13T04:37:49.663488
MEAN_MOTION    = 15.49608679
ECCENTRICITY   = .00041633
INCLINATION    = 51.6333
RA_OF_ASC_NODE = 288.7385
ARG_OF_PERICENTER = 64.5254
MEAN_ANOMALY   = 295.6165

EPHEMERIS_TYPE = 0
CLASSIFICATION_TYPE = U
NORAD_CAT_ID   = 25544
ELEMENT_SET_NO = 999
REV_AT_EPOCH   = 53827
BSTAR          = .35825426E-3
MEAN_MOTION_DOT = .19765E-3
MEAN_MOTION_DDOT = 0

CCSDS_OMM_VERS = 2.0
CREATION_DATE  = 
ORIGINATOR     = 

OBJECT_NAME    = CZ-4B R/B
OBJECT_ID      = 1999-025C
CENTER_NAME    = EARTH
REF_FRAME      = TEME
TIME_SYSTEM    = UTC
MEAN_ELEMENT_THEORY = SGP/SGP4

EPOCH          = 2025-11-13T02:49:34.415616
MEAN_MOTION    = 14.18232762
ECCENTRICITY   = .00363978
INCLINATION    = 98.6814
RA_OF_ASC_NODE = 359.0538
ARG_OF_PERICENTER = 321.4882
MEAN_ANOMALY   = 96.8899

EPHEMERIS_TYPE = 0
CLASSIFICATION_TYPE = U
NORAD_CAT_ID   = 25732
ELEMENT_SET_NO = 999
REV_AT_EPOCH   = 37164
BSTAR          = .12426777E-3
MEAN_MOTION_DOT = .214E-5
MEAN_MOTION_DDOT = 0

CCSDS_OMM_VERS = 2.0
CREATION_DATE  = 
ORIGINATOR     = 

OBJECT_NAME    = OKEAN-O
OBJECT_ID      = 1999-039A
CENTER_NAME    = EARTH
REF_FRAME      = TEME
TIME_SYSTEM    = UTC
MEAN_ELEMENT_THEORY = SGP/SGP4

EPOCH          = 2025-11-13T04:18:25.909920
MEAN_MOTION    = 14.80088871
ECCENTRICITY   = .00014331
INCLINATION    = 97.9646
RA_OF_ASC_NODE = 13.1315
ARG_OF_PERICENTER = 67.4555
MEAN_ANOMALY   = 292.6809

EPHEMERIS_TYPE = 0
CLASSIFICATION_TYPE = U
NORAD_CAT_ID   = 25860
ELEMENT_SET_NO = 999
REV_AT_EPOCH   = 41715
BSTAR          = .23922417E-3
MEAN_MOTION_DOT = .1761E-4
MEAN_MOTION_DDOT = 0

CCSDS_OMM_VERS = 2.0
CREATION_DATE  = 
ORIGINATOR     = 

OBJECT_NAME    = SL-16 R/B
OBJECT_ID      = 1999-039B
CENTER_NAME    = EARTH
REF_FRAME      = TEME
TIME_SYSTEM    = UTC
MEAN_ELEMENT_THEORY = SGP/SGP4

EPOCH          = 2025-11-13T03:15:09.248544
MEAN_MOTION    = 14.81523892
ECCENTRICITY   = .00135227
INCLINATION    = 98.0169
RA_OF_ASC_NODE = 11.2787
ARG_OF_PERICENTER = 276.3845
MEAN_ANOMALY   = 83.5828

EPHEMERIS_TYPE = 0
CLASSIFICATION_TYPE = U
NORAD_CAT_ID   = 25861
ELEMENT_SET_NO = 999
REV_AT_EPOCH   = 41960
BSTAR          = .19662129E-3
MEAN_MOTION_DOT = .149E-4
MEAN_MOTION_DDOT = 0

CCSDS_OMM_VERS = 2.0
CREATION_DATE  = 
ORIGINATOR     = 

OBJECT_NAME    = DELTA 2 R/B
OBJECT_ID      = 1999-041E
CENTER_NAME    = EARTH
REF_FRAME      = TEME
TIME_SYSTEM    = UTC
MEAN_ELEMENT_THEORY = SGP/SGP4

EPOCH          = 2025-11-13T06:06:10.573920
MEAN_MOTION    = 14.11297644
ECCENTRICITY   = .05048364
INCLINATION    = 51.7638
RA_OF_ASC_NODE = 46.1357
ARG_OF_PERICENTER = 4.8804
MEAN_ANOMALY   = 355.6793

EPHEMERIS_TYPE = 0
CLASSIFICATION_TYPE = U
NORAD_CAT_ID   = 25876
ELEMENT_SET_NO = 999
REV_AT_EPOCH   = 34658
BSTAR          = .34918418E-3
MEAN_MOTION_DOT = .1928E-4
MEAN_MOTION_DDOT = 0

CCSDS_OMM_VERS = 2.0
CREATION_DATE  = 
ORIGINATOR     = 

OBJECT_NAME    = HELIOS 1B
OBJECT_ID      = 1999-064A
CENTER_NAME    = EARTH
REF_FRAME      = TEME
TIME_SYSTEM    = UTC
MEAN_ELEMENT_THEORY = SGP/SGP4

EPOCH          = 2025-11-13T06:24:13.672224
MEAN_MOTION    = 14.87107216
ECCENTRICITY   = .00026241
INCLINATION    = 98.1752
RA_OF_ASC_NODE = 211.0620
ARG_OF_PERICENTER = 83.1526
MEAN_ANOMALY   = 276.9988

EPHEMERIS_TYPE = 0
CLASSIFICATION_TYPE = U
NORAD_CAT_ID   = 25977
ELEMENT_SET_NO = 999
REV_AT_EPOCH   = 66795
BSTAR          = .70189331E-3
MEAN_MOTION_DOT = .6248E-4
MEAN_MOTION_DDOT = 0

CCSDS_OMM_VERS = 2.0
CREATION_DATE  = 
ORIGINATOR     = 

OBJECT_NAME    = TERRA
OBJECT_ID      = 1999-068A
CENTER_NAME    = EARTH
REF_FRAME      = TEME
TIME_SYSTEM    = UTC
MEAN_ELEMENT_THEORY = SGP/SGP4

EPOCH          = 2025-11-13T06:55:19.374816
MEAN_MOTION    = 14.60903197
ECCENTRICITY   = .00024078
INCLINATION    = 97.9791
RA_OF_ASC_NODE = 10.0463
ARG_OF_PERICENTER = 160.4350
MEAN_ANOMALY   = 288.8881

EPHEMERIS_TYPE = 0
CLASSIFICATION_TYPE = U
NORAD_CAT_ID   = 25994
ELEMENT_SET_NO = 999
REV_AT_EPOCH   = 37808
BSTAR          = .27164235E-3
MEAN_MOTION_DOT = .1285E-4
MEAN_MOTION_DDOT = 0

CCSDS_OMM_VERS = 2.0
CREATION_DATE  = 
ORIGINATOR     = 

OBJECT_NAME    = SL-16 R/B
OBJECT_ID      = 2000-006B
CENTER_NAME    = EARTH
REF_FRAME      = TEME
TIME_SYSTEM    = UTC
MEAN_ELEMENT_THEORY = SGP/SGP4

EPOCH          = 2025-11-13T05:23:53.537280
MEAN_MOTION    = 14.15802470
ECCENTRICITY   = .00169347
INCLINATION    = 71.0034
RA_OF_ASC_NODE = 342.7183
ARG_OF_PERICENTER = 350.1738
MEAN_ANOMALY   = 9.9051

EPHEMERIS_TYPE = 0
CLASSIFICATION_TYPE = U
NORAD_CAT_ID   = 26070
ELEMENT_SET_NO = 999
REV_AT_EPOCH   = 33207
BSTAR          = -.19583735E-4
MEAN_MOTION_DOT = -.86E-6
MEAN_MOTION_DDOT = 0

