SL-16 R/B               
1 24298U 96051B   25317.23904137  .00000035  00000+0  45413-4 0  9991
2 24298  70.7605  61.7243 0018155 298.5350  61.3941 14.12393146505207
ORBVIEW 2 (SEASTAR)     
1 24883U 97037A   25317.28999371  .00000823  00000+0  30296-3 0  9992
2 24883  98.8447 113.6263 0002983  58.8106 301.3371 14.35384337491776
SL-16 R/B               
1 25400U 98043G   25317.25899202  .00000236  00000+0  11776-3 0  9995
2 25400  98.8075 264.9195 0009822 358.6691   1.4461 14.26014745422395
SL-16 R/B               
1 25407U 98045B   25316.60397471 -.00000084  00000+0 -18153-4 0  9993
2 25407  71.0121  67.7985 0008661 218.9940 141.0560 14.16169221410520
ISS (ZARYA)             
1 25544U 98067A   25317.19293592  .00019765  00000+0  35825-3 0  9991
2 25544  51.6333 288.7385 0004163  64.5254 295.6165 15.49608679538278
CZ-4B R/B               
1 25732U 99025C   25317.11775944  .00000214  00000+0  12427-3 0  9995
2 25732  98.6814 359.0538 0036397 321.4882  96.8899 14.18232762371642
OKEAN-O                 
1 25860U 99039A   25317.17946655  .00001761  00000+0  23922-3 0  9997
2 25860  97.9646  13.1315 0001433  67.4555 292.6809 14.80088871417150
SL-16 R/B               
1 25861U 99039B   25317.13552371  .00001490  00000+0  19662-3 0  9997
2 25861  98.0169  11.2787 0013522 276.3845  83.5828 14.81523892419608
DELTA 2 R/B             
1 25876U 99041E   25317.25428905  .00001928  00000+0  34918-3 0  9991
2 25876  51.7638  46.1357 0504836   4.8804 355.6793 14.11297644346589
HELIOS 1B               
1 25977U 99064A   25317.26682491  .00006248  00000+0  70189-3 0  9991
2 25977  98.1752 211.0620 0002624  83.1526 276.9988 14.87107216667954
TERRA                   
1 25994U 99068A   25317.28841869  .00001285  00000+0  27164-3 0  9993
2 25994  97.9791  10.0463 0002407 160.4350 288.8881 14.60903197378088
SL-16 R/B               
1 26070U 00006B   25317.22492520 -.00000086  00000+0 -19584-4 0  9991
2 26070  71.0034 342.7183 0016934 350.1738   9.9051 14.15802470332071
